OBJECT_NAME,OBJECT_ID,EPOCH,MEAN_MOTION,ECCENTRICITY,INCLINATION,RA_OF_ASC_NODE,ARG_OF_PERICENTER,MEAN_ANOMALY,EPHEMERIS_TYPE,CLASSIFICATION_TYPE,NORAD_CAT_ID,ELEMENT_SET_NO,REV_AT_EPOCH,BSTAR,MEAN_MOTION_DOT,MEAN_MOTION_DDOT
CUTE-1 (CO-55),2003-031E,2026-05-13T11:23:50.019072,14.24313421,.0008333,98.6747,142.4698,288.8739,71.1536,0,U,27844,999,18673,.10262E-3,.193E-5,0
CUBESAT XI-IV (CO-57),2003-031J,2026-05-12T22:53:44.176992,14.23601310,.00084651,98.6779,141.6963,311.5693,48.4759,0,U,27848,999,18636,.92088775E-4,.166E-5,0
CUBESAT XI-V,2005-043F,2026-05-13T09:49:01.644384,14.72536322,.0013121,98.2946,288.3105,319.7744,40.2490,0,U,28895,999,9663,.13289E-3,.792E-5,0
CUTE-1.7+APD II (CO-65),2008-021C,2026-05-13T09:00:57.159648,15.09108129,.0010058,97.8259,114.0841,139.0492,221.1493,0,U,32785,999,97994,.18483E-3,.2866E-4,0
CANX-2,2008-021H,2026-05-13T09:27:08.410176,15.05361431,.0011232,97.8625,112.5078,152.0350,208.1482,0,U,32790,999,97957,.1379E-3,.1913E-4,0
SEEDS II (CO-66),2008-021J,2026-05-13T10:55:27.012000,15.31527838,.000499,97.7522,129.7307,83.3636,276.8172,0,U,32791,999,98197,.35503E-3,.10734E-3,0
SWISSCUBE,2009-051B,2026-05-13T04:57:21.262176,14.62410948,.0006178,98.4058,40.4838,333.2483,26.8399,0,U,35932,999,88404,.1272E-3,.594E-5,0
BEESAT-1,2009-051C,2026-05-13T06:23:30.238944,14.61660725,.0005036,98.3987,40.2528,351.2715,8.8397,0,U,35933,999,88408,.10908E-3,.494E-5,0
ITUPSAT1,2009-051E,2026-05-13T03:47:47.461344,14.60385418,.000744,98.4072,39.3718,358.3068,1.8105,0,U,35935,999,88362,.10367E-3,.453E-5,0
TISAT 1,2010-035E,2026-05-13T08:18:35.820288,15.30347916,.0003488,98.0691,76.8483,52.2159,307.9396,0,U,36799,999,86237,.42092E-3,.12278E-3,0
AEROCUBE 4.5A,2012-048K,2026-05-13T08:05:15.928224,15.77888669,.0019069,64.6290,152.4858,216.8593,143.1251,0,U,38767,999,36713,.64338E-3,.111747E-2,0
STRAND-1,2013-009E,2026-05-13T05:52:36.822432,14.37141852,.0008178,98.3916,314.3410,343.6635,16.4288,0,U,39090,999,69204,.72597E-4,.173E-5,0
BRITE-AUSTRIA,2013-009F,2026-05-13T10:50:27.342240,14.36527680,.0009899,98.3988,313.7488,350.9654,9.1353,0,U,39091,999,69206,.49498E-4,.103E-5,0
NEE-01 PEGASO,2013-018B,2026-05-13T08:40:10.227072,14.93483981,.0011281,98.1178,276.3748,279.5915,80.4029,0,U,39151,999,70550,.14717E-3,.1488E-4,0
POPACS 2,2013-055E,2026-05-13T09:48:28.979136,14.90413241,.0419194,80.9929,183.9814,305.6784,50.6077,0,U,39269,999,65803,.15353E-3,.8941E-4,0
POPACS 3,2013-055F,2026-05-13T08:07:32.968992,14.55254304,.05549,81.0001,266.9447,175.9665,184.6305,0,U,39270,999,63348,.25723E-3,.10771E-3,0
ZACUBE-1 (TSHEPISOSAT),2013-066B,2026-05-13T08:14:34.024704,15.00910563,.0041807,97.8118,95.4912,10.4134,349.7946,0,U,39417,999,67550,.21971E-3,.2785E-4,0
WNISAT-1,2013-066H,2026-05-13T08:22:32.176128,14.58018061,.0162655,97.7159,284.9867,342.1290,17.4230,0,U,39423,999,66165,.6103E-4,.285E-5,0
TRITON-1,2013-066M,2026-05-13T10:45:00.035712,14.81549549,.0090118,97.8265,44.0457,348.6824,11.2360,0,U,39427,999,66894,.23162E-3,.1892E-4,0
GOMX-1,2013-066Q,2026-05-13T12:34:58.096992,14.69318487,.0128478,97.6515,336.1730,188.1862,171.7250,0,U,39430,999,66482,.17435E-3,.1116E-4,0
CUBEBUG-2 (LO-74),2013-066AA,2026-05-13T08:39:30.983328,14.93493081,.0058865,97.8891,82.2050,141.5245,219.0194,0,U,39440,999,67179,.14601E-3,.1527E-4,0
NEE-02 KRYSAOR,2013-066AB,2026-05-13T06:35:11.158080,14.86483884,.0066091,97.8882,72.7460,182.8707,177.2139,0,U,39441,999,67101,.10977E-3,.951E-5,0
FUNCUBE-1 (AO-73),2013-066AE,2026-05-13T12:20:48.506784,15.09027653,.0035304,97.8259,104.2531,324.5150,35.3730,0,U,39444,999,67443,.30844E-3,.4881E-4,0
UWE-3,2013-066AG,2026-05-13T09:19:01.572096,14.96721930,.0050799,97.8680,89.2422,75.9697,284.7165,0,U,39446,999,67237,.18157E-3,.2066E-4,0
BRITE-CA1 (TORONTO),2014-033L,2026-05-13T07:37:32.128608,14.72627770,.0079262,97.9688,262.8994,29.4987,331.0659,0,U,40020,999,63708,.72027E-4,.428E-5,0
DUCHIFAT-1,2014-033M,2026-05-13T02:07:34.370400,15.58323990,.0005818,98.0508,187.5109,186.4444,173.6736,0,U,40021,999,65027,.61912E-3,.47059E-3,0
NANOSATC-BR1,2014-033Q,2026-05-13T00:56:34.851264,15.30316701,.00019306,98.0756,162.3424,326.7264,33.3853,0,U,40024,999,64860,.37739395E-3,.10985E-3,0
QB50P1,2014-033R,2026-05-13T11:26:32.522784,15.17704544,.0008319,98.0980,142.2038,357.1376,2.9807,0,U,40025,999,64776,.25722E-3,.5113E-4,0
QB50P2,2014-033Y,2026-05-13T10:09:04.956192,15.14697843,.0005806,98.0752,128.1540,300.8251,59.2407,0,U,40032,999,64740,.19903E-3,.3611E-4,0
PERSEUS-M2,2014-033AD,2026-05-13T12:53:43.609056,14.95396907,.0013188,97.9936,83.3795,58.4683,301.7823,0,U,40037,999,64560,.98092E-4,.1024E-4,0
